{"type": "FeatureCollection", "features": [{"type": "Feature", "properties": {"norad_id": 25590, "name": "COSMOS 2361", "group": "musson", "lat": -4.977656164949844, "lon": -22.35358683453243, "alt_km": 999.9295889848954, "timestamp": "2025-12-20T14:38:02.239684+00:00", "meta": {"OBJECT_NAME": "COSMOS 2361", "OBJECT_ID": "1998-076A", "EPOCH": "2025-12-20T05:58:04.531584", "MEAN_MOTION": 13.73218357, "ECCENTRICITY": 0.00301638, "INCLINATION": 82.9341, "RA_OF_ASC_NODE": 338.5323, "ARG_OF_PERICENTER": 243.8265, "MEAN_ANOMALY": 126.9049, "EPHEMERIS_TYPE": 0, "CLASSIFICATION_TYPE": "U", "NORAD_CAT_ID": 25590, "ELEMENT_SET_NO": 999, "REV_AT_EPOCH": 35214, "BSTAR": 4.0255726e-05, "MEAN_MOTION_DOT": 5.2e-07, "MEAN_MOTION_DDOT": 0}, "tle": {"line1": "1 25590U 98076A   25354.24866356  .00000052  00000+0  40256-4 0  9997", "line2": "2 25590  82.9341 338.5323 0030163 243.8265 126.9049 13.73218357352146"}}, "geometry": {"type": "Point", "coordinates": [-22.35358683453243, -4.977656164949844]}}, {"type": "Feature", "properties": {"norad_id": 26818, "name": "COSMOS 2378", "group": "musson", "lat": 82.23796239830787, "lon": 108.26853115437828, "alt_km": 977.0273648703087, "timestamp": "2025-12-20T14:38:02.239706+00:00", "meta": {"OBJECT_NAME": "COSMOS 2378", "OBJECT_ID": "2001-023A", "EPOCH": "2025-12-20T02:15:33.782400", "MEAN_MOTION": 13.74142577, "ECCENTRICITY": 0.00328573, "INCLINATION": 82.927, "RA_OF_ASC_NODE": 354.2713, "ARG_OF_PERICENTER": 184.1929, "MEAN_ANOMALY": 240.1457, "EPHEMERIS_TYPE": 0, "CLASSIFICATION_TYPE": "U", "NORAD_CAT_ID": 26818, "ELEMENT_SET_NO": 999, "REV_AT_EPOCH": 23024, "BSTAR": 2.8179854e-05, "MEAN_MOTION_DOT": 4.2e-07, "MEAN_MOTION_DDOT": 0}, "tle": {"line1": "1 26818U 01023A   25354.09414100  .00000042  00000+0  28180-4 0  9997", "line2": "2 26818  82.9270 354.2713 0032857 184.1929 240.1457 13.74142577230244"}}, "geometry": {"type": "Point", "coordinates": [108.26853115437828, 82.23796239830787]}}, {"type": "Feature", "properties": {"norad_id": 27436, "name": "COSMOS 2389", "group": "musson", "lat": -31.220152995204955, "lon": -63.14204322232977, "alt_km": 975.4027651928682, "timestamp": "2025-12-20T14:38:02.239720+00:00", "meta": {"OBJECT_NAME": "COSMOS 2389", "OBJECT_ID": "2002-026A", "EPOCH": "2025-12-19T23:24:18.627840", "MEAN_MOTION": 13.75155401, "ECCENTRICITY": 0.0047366, "INCLINATION": 82.9508, "RA_OF_ASC_NODE": 301.6284, "ARG_OF_PERICENTER": 41.0478, "MEAN_ANOMALY": 28.5622, "EPHEMERIS_TYPE": 0, "CLASSIFICATION_TYPE": "U", "NORAD_CAT_ID": 27436, "ELEMENT_SET_NO": 999, "REV_AT_EPOCH": 18248, "BSTAR": 3.0288e-05, "MEAN_MOTION_DOT": 4.5e-07, "MEAN_MOTION_DDOT": 0}, "tle": {"line1": "1 27436U 02026A   25353.97521560  .00000045  00000+0  30288-4 0  9998", "line2": "2 27436  82.9508 301.6284 0047366  41.0478  28.5622 13.75155401182480"}}, "geometry": {"type": "Point", "coordinates": [-63.14204322232977, -31.220152995204955]}}, {"type": "Feature", "properties": {"norad_id": 27818, "name": "COSMOS 2398", "group": "musson", "lat": -23.71704436532336, "lon": 90.01613966992207, "alt_km": 1005.8111024989475, "timestamp": "2025-12-20T14:38:02.239732+00:00", "meta": {"OBJECT_NAME": "COSMOS 2398", "OBJECT_ID": "2003-023A", "EPOCH": "2025-12-20T03:41:35.541312", "MEAN_MOTION": 13.72386473, "ECCENTRICITY": 0.00327244, "INCLINATION": 82.9484, "RA_OF_ASC_NODE": 267.2349, "ARG_OF_PERICENTER": 92.0261, "MEAN_ANOMALY": 20.4538, "EPHEMERIS_TYPE": 0, "CLASSIFICATION_TYPE": "U", "NORAD_CAT_ID": 27818, "ELEMENT_SET_NO": 999, "REV_AT_EPOCH": 12918, "BSTAR": 5.5883034e-05, "MEAN_MOTION_DOT": 6.7e-07, "MEAN_MOTION_DDOT": 0}, "tle": {"line1": "1 27818U 03023A   25354.15388358  .00000067  00000+0  55883-4 0  9999", "line2": "2 27818  82.9484 267.2349 0032724  92.0261  20.4538 13.72386473129181"}}, "geometry": {"type": "Point", "coordinates": [90.01613966992207, -23.71704436532336]}}, {"type": "Feature", "properties": {"norad_id": 28380, "name": "COSMOS 2407", "group": "musson", "lat": 28.937276187681515, "lon": 23.14810550759408, "alt_km": 989.0001199790258, "timestamp": "2025-12-20T14:38:02.239743+00:00", "meta": {"OBJECT_NAME": "COSMOS 2407", "OBJECT_ID": "2004-028A", "EPOCH": "2025-12-20T04:01:37.975296", "MEAN_MOTION": 13.76314508, "ECCENTRICITY": 0.00399915, "INCLINATION": 82.9598, "RA_OF_ASC_NODE": 207.3929, "ARG_OF_PERICENTER": 34.5963, "MEAN_ANOMALY": 87.2263, "EPHEMERIS_TYPE": 0, "CLASSIFICATION_TYPE": "U", "NORAD_CAT_ID": 28380, "ELEMENT_SET_NO": 999, "REV_AT_EPOCH": 7525, "BSTAR": 5.6614391e-05, "MEAN_MOTION_DOT": 7.1e-07, "MEAN_MOTION_DDOT": 0}, "tle": {"line1": "1 28380U 04028A   25354.16780064  .00000071  00000+0  56614-4 0  9999", "line2": "2 28380  82.9598 207.3929 0039991  34.5963  87.2263 13.76314508 75252"}}, "geometry": {"type": "Point", "coordinates": [23.14810550759408, 28.937276187681515]}}, {"type": "Feature", "properties": {"norad_id": 28521, "name": "COSMOS 2414", "group": "musson", "lat": 20.947215987003826, "lon": -178.57574065745652, "alt_km": 939.150922276157, "timestamp": "2025-12-20T14:38:02.239754+00:00", "meta": {"OBJECT_NAME": "COSMOS 2414", "OBJECT_ID": "2005-002A", "EPOCH": "2025-12-20T00:41:25.969920", "MEAN_MOTION": 13.87903927, "ECCENTRICITY": 0.00412481, "INCLINATION": 82.9488, "RA_OF_ASC_NODE": 179.148, "ARG_OF_PERICENTER": 119.4004, "MEAN_ANOMALY": 241.1287, "EPHEMERIS_TYPE": 0, "CLASSIFICATION_TYPE": "U", "NORAD_CAT_ID": 28521, "ELEMENT_SET_NO": 999, "REV_AT_EPOCH": 5896, "BSTAR": 4.5926204e-05, "MEAN_MOTION_DOT": 7.1e-07, "MEAN_MOTION_DDOT": 0}, "tle": {"line1": "1 28521U 05002A   25354.02877280  .00000071  00000+0  45926-4 0  9995", "line2": "2 28521  82.9488 179.1480 0041248 119.4004 241.1287 13.87903927 58969"}}, "geometry": {"type": "Point", "coordinates": [-178.57574065745652, 20.947215987003826]}}, {"type": "Feature", "properties": {"norad_id": 32052, "name": "COSMOS 2429", "group": "musson", "lat": 24.587883399862022, "lon": 154.2749645650942, "alt_km": 1001.8764234568198, "timestamp": "2025-12-20T14:38:02.239765+00:00", "meta": {"OBJECT_NAME": "COSMOS 2429", "OBJECT_ID": "2007-038A", "EPOCH": "2025-12-20T05:09:10.530144", "MEAN_MOTION": 13.75150139, "ECCENTRICITY": 0.00388144, "INCLINATION": 82.9805, "RA_OF_ASC_NODE": 337.7979, "ARG_OF_PERICENTER": 17.3604, "MEAN_ANOMALY": 342.8869, "EPHEMERIS_TYPE": 0, "CLASSIFICATION_TYPE": "U", "NORAD_CAT_ID": 32052, "ELEMENT_SET_NO": 999, "REV_AT_EPOCH": 91705, "BSTAR": 3.7707833e-05, "MEAN_MOTION_DOT": 5.2e-07, "MEAN_MOTION_DDOT": 0}, "tle": {"line1": "1 32052U 07038A   25354.21470521  .00000052  00000+0  37708-4 0  9996", "line2": "2 32052  82.9805 337.7979 0038814  17.3604 342.8869 13.75150139917053"}}, "geometry": {"type": "Point", "coordinates": [154.2749645650942, 24.587883399862022]}}, {"type": "Feature", "properties": {"norad_id": 35635, "name": "COSMOS 2454", "group": "musson", "lat": 49.97996721237585, "lon": -25.788819241781127, "alt_km": 920.9165110495778, "timestamp": "2025-12-20T14:38:02.239775+00:00", "meta": {"OBJECT_NAME": "COSMOS 2454", "OBJECT_ID": "2009-039A", "EPOCH": "2025-12-20T00:46:45.983424", "MEAN_MOTION": 13.89929547, "ECCENTRICITY": 0.00202376, "INCLINATION": 82.9556, "RA_OF_ASC_NODE": 163.1166, "ARG_OF_PERICENTER": 54.2109, "MEAN_ANOMALY": 68.1245, "EPHEMERIS_TYPE": 0, "CLASSIFICATION_TYPE": "U", "NORAD_CAT_ID": 35635, "ELEMENT_SET_NO": 999, "REV_AT_EPOCH": 83251, "BSTAR": 3.6626421e-05, "MEAN_MOTION_DOT": 6.1e-07, "MEAN_MOTION_DDOT": 0}, "tle": {"line1": "1 35635U 09039A   25354.03247666  .00000061  00000+0  36626-4 0  9999", "line2": "2 35635  82.9556 163.1166 0020237  54.2109  68.1245 13.89929547832510"}}, "geometry": {"type": "Point", "coordinates": [-25.788819241781127, 49.97996721237585]}}, {"type": "Feature", "properties": {"norad_id": 36519, "name": "COSMOS 2463", "group": "musson", "lat": 12.397996495102959, "lon": 22.4856233165714, "alt_km": 1002.2842417423899, "timestamp": "2025-12-20T14:38:02.239785+00:00", "meta": {"OBJECT_NAME": "COSMOS 2463", "OBJECT_ID": "2010-017A", "EPOCH": "2025-12-20T04:24:02.126016", "MEAN_MOTION": 13.71649756, "ECCENTRICITY": 0.00347378, "INCLINATION": 82.9605, "RA_OF_ASC_NODE": 21.2424, "ARG_OF_PERICENTER": 266.6189, "MEAN_ANOMALY": 161.2989, "EPHEMERIS_TYPE": 0, "CLASSIFICATION_TYPE": "U", "NORAD_CAT_ID": 36519, "ELEMENT_SET_NO": 999, "REV_AT_EPOCH": 78339, "BSTAR": 4.3115285e-05, "MEAN_MOTION_DOT": 5.4e-07, "MEAN_MOTION_DDOT": 0}, "tle": {"line1": "1 36519U 10017A   25354.18335794  .00000054  00000+0  43115-4 0  9998", "line2": "2 36519  82.9605  21.2424 0034737 266.6189 161.2989 13.71649756783398"}}, "geometry": {"type": "Point", "coordinates": [22.4856233165714, 12.397996495102959]}}]}